0 BREEZE-M R/B
1 38099U 12011B   13278.63010279 -.00000342  00000-0  00000+0 0  1680
2 38099 029.2389 318.1334 7767021 272.7156 009.9586 01.11834287  6274
0 BREEZE-M R/B
1 38099U 12011B   13283.10087904 -.00000304  00000-0  00000+0 0  1696
2 38099 029.2378 317.6405 7767094 273.4852 009.8754 01.11834147  6323
0 BREEZE-M R/B
1 38099U 12011B   13287.57146952 -.00000447  00000-0  00000+0 0  1700
2 38099 029.2363 317.1505 7766671 274.2463 009.6726 01.11834739  6379
0 BREEZE-M R/B
1 38099U 12011B   13291.14776147 -.00000498  00000-0  00000+0 0  1710
2 38099 029.2356 316.7548 7766690 274.8605 009.4369 01.11835289  6415
